[{"OBJECT_NAME":"STARLINK-35195","OBJECT_ID":"2025-207Q","EPOCH":"2026-03-09T17:40:36.529824","MEAN_MOTION":15.05660827,"ECCENTRICITY":3.381e-5,"INCLINATION":97.6041,"RA_OF_ASC_NODE":138.7907,"ARG_OF_PERICENTER":111.9911,"MEAN_ANOMALY":248.1352,"EPHEMERIS_TYPE":0,"CLASSIFICATION_TYPE":"U","NORAD_CAT_ID":65606,"ELEMENT_SET_NO":999,"REV_AT_EPOCH":2827,"BSTAR":0.00040656138,"MEAN_MOTION_DOT":5.812e-5,"MEAN_MOTION_DDOT":0},{"OBJECT_NAME":"IRIDIUM 33 DEB","OBJECT_ID":"1997-051ABJ","EPOCH":"2026-03-07T11:02:11.153184","MEAN_MOTION":15.04355632,"ECCENTRICITY":0.00105712,"INCLINATION":86.348,"RA_OF_ASC_NODE":321.5871,"ARG_OF_PERICENTER":86.7515,"MEAN_ANOMALY":38.318,"EPHEMERIS_TYPE":0,"CLASSIFICATION_TYPE":"U","NORAD_CAT_ID":40996,"ELEMENT_SET_NO":999,"REV_AT_EPOCH":63758,"BSTAR":0.0045408492,"MEAN_MOTION_DOT":0.00063892,"MEAN_MOTION_DDOT":0}]
